<?xml version="1.0" encoding="UTF-8"?>
<kml xmlns="http://www.opengis.net/kml/2.2"><Document>
<name>Posting Navigator - 北新宿一丁目 担当02</name>
<Style id="area"><LineStyle><color>ff0000ff</color><width>3</width></LineStyle><PolyStyle><color>330000ff</color></PolyStyle></Style>
<Style id="road"><LineStyle><color>88999999</color><width>2</width></LineStyle></Style>
<Style id="route"><LineStyle><color>ff00a5ff</color><width>5</width></LineStyle></Style>
<Style id="start"><IconStyle><scale>1.2</scale><Icon><href>http://maps.google.com/mapfiles/kml/paddle/grn-circle.png</href></Icon></IconStyle></Style>
<Style id="worker1"><LineStyle><color>ff0000ff</color><width>6</width></LineStyle></Style><Style id="worker2"><LineStyle><color>ff00a5ff</color><width>6</width></LineStyle></Style><Style id="worker3"><LineStyle><color>ff00cc00</color><width>6</width></LineStyle></Style><Style id="worker4"><LineStyle><color>ffff0000</color><width>6</width></LineStyle></Style><Style id="worker5"><LineStyle><color>ff00ffff</color><width>6</width></LineStyle></Style><Style id="worker6"><LineStyle><color>ffff00ff</color><width>6</width></LineStyle></Style><Style id="worker7"><LineStyle><color>ff0088ff</color><width>6</width></LineStyle></Style><Style id="worker8"><LineStyle><color>ff888800</color><width>6</width></LineStyle></Style>
<Folder><name>01 区画</name><Placemark><name>北新宿一丁目 担当02</name><styleUrl>#area</styleUrl><Polygon><outerBoundaryIs><LinearRing><coordinates>139.6912750,35.6970530,0 139.6913060,35.6970540,0 139.6916400,35.6970580,0 139.6917030,35.6970660,0 139.6917880,35.6970770,0 139.6919300,35.6970950,0 139.6923560,35.6971480,0 139.6927570,35.6971980,0 139.6928240,35.6972080,0 139.6929290,35.6972230,0 139.6930750,35.6972430,0 139.6933870,35.6972870,0 139.6935350,35.6973080,0 139.6940620,35.6973820,0 139.6941440,35.6973940,0 139.6943850,35.6974330,0 139.6945680,35.6974640,0 139.6948320,35.6975070,0 139.6949490,35.6975260,0 139.6949800,35.6975320,0 139.6953700,35.6975960,0 139.6954190,35.6976040,0 139.6958150,35.6976690,0 139.6958440,35.6976730,0 139.6958850,35.6976800,0 139.6959180,35.6976850,0 139.6959390,35.6976890,0 139.6961140,35.6977160,0 139.6962820,35.6977460,0 139.6963040,35.6977490,0 139.6967230,35.6978220,0 139.6967540,35.6978280,0 139.6968450,35.6978440,0 139.6970140,35.6978730,0 139.6973370,35.6979290,0 139.6974160,35.6979500,0 139.6972910,35.6981790,0 139.6969640,35.6987200,0 139.6969350,35.6987670,0 139.6968990,35.6988240,0 139.6967780,35.6990210,0 139.6967260,35.6991030,0 139.6966050,35.6992970,0 139.6965240,35.6994290,0 139.6963260,35.6997500,0 139.6961400,35.7000400,0 139.6960480,35.7001840,0 139.6959390,35.7003550,0 139.6958400,35.7005090,0 139.6957680,35.7006200,0 139.6956600,35.7007880,0 139.6956290,35.7008360,0 139.6954090,35.7012780,0 139.6953430,35.7014110,0 139.6952320,35.7016720,0 139.6951830,35.7018560,0 139.6950520,35.7018480,0 139.6944910,35.7018960,0 139.6944760,35.7018980,0 139.6941480,35.7019120,0 139.6940760,35.7019180,0 139.6938520,35.7019380,0 139.6936450,35.7019470,0 139.6936260,35.7019480,0 139.6934030,35.7019310,0 139.6933330,35.7019260,0 139.6933260,35.7019250,0 139.6933120,35.7019240,0 139.6930990,35.7019030,0 139.6930890,35.7019020,0 139.6929320,35.7018890,0 139.6926920,35.7018680,0 139.6925930,35.7018600,0 139.6925540,35.7018570,0 139.6921860,35.7018250,0 139.6918430,35.7017960,0 139.6916940,35.7017830,0 139.6916510,35.7017790,0 139.6913060,35.7017480,0 139.6912170,35.7017420,0 139.6909920,35.7017250,0 139.6907980,35.7017100,0 139.6906340,35.7016990,0 139.6906190,35.7016980,0 139.6905720,35.7016970,0 139.6907200,35.7014640,0 139.6907660,35.7013900,0 139.6908170,35.7013110,0 139.6908660,35.7011540,0 139.6909230,35.7009690,0 139.6910420,35.7006330,0 139.6910800,35.7005500,0 139.6911400,35.7004050,0 139.6912060,35.7002430,0 139.6912100,35.7002350,0 139.6912410,35.7000890,0 139.6912430,35.6998200,0 139.6912180,35.6996450,0 139.6912060,35.6995530,0 139.6911950,35.6994810,0 139.6911250,35.6991410,0 139.6911170,35.6989750,0 139.6911100,35.6989470,0 139.6911080,35.6989160,0 139.6910950,35.6986800,0 139.6910870,35.6985350,0 139.6909900,35.6983370,0 139.6909440,35.6982750,0 139.6907720,35.6981060,0 139.6907160,35.6980410,0 139.6906320,35.6977860,0 139.6905330,35.6973660,0 139.6905300,35.6973520,0 139.6904740,35.6970730,0 139.6905120,35.6969410,0 139.6905240,35.6969000,0 139.6906030,35.6969000,0 139.6906960,35.6970170,0 139.6908570,35.6970460,0 139.6908840,35.6970460,0 139.6911100,35.6970440,0 139.6912750,35.6970530,0</coordinates></LinearRing></outerBoundaryIs></Polygon></Placemark></Folder>
<Folder><name>02 対象道路</name><Placemark><name>offline fixture</name>
<styleUrl>#road</styleUrl><ExtendedData><Data name="highway"><value>residential</value></Data></ExtendedData><LineString><tessellate>1</tessellate><coordinates>139.6911682,35.6970472,0 139.6911682,35.6993508,0</coordinates></LineString></Placemark><Placemark><name>offline fixture</name>
<styleUrl>#road</styleUrl><ExtendedData><Data name="highway"><value>residential</value></Data></ExtendedData><LineString><tessellate>1</tessellate><coordinates>139.6911682,35.7003358,0 139.6911682,35.7017383,0</coordinates></LineString></Placemark><Placemark><name>offline fixture</name>
<styleUrl>#road</styleUrl><ExtendedData><Data name="highway"><value>residential</value></Data></ExtendedData><LineString><tessellate>1</tessellate><coordinates>139.6922095,35.6971298,0 139.6922095,35.7018270,0</coordinates></LineString></Placemark><Placemark><name>offline fixture</name>
<styleUrl>#road</styleUrl><ExtendedData><Data name="highway"><value>residential</value></Data></ExtendedData><LineString><tessellate>1</tessellate><coordinates>139.6932508,35.6972678,0 139.6932508,35.7019180,0</coordinates></LineString></Placemark><Placemark><name>offline fixture</name>
<styleUrl>#road</styleUrl><ExtendedData><Data name="highway"><value>residential</value></Data></ExtendedData><LineString><tessellate>1</tessellate><coordinates>139.6942921,35.6974180,0 139.6942921,35.7019058,0</coordinates></LineString></Placemark><Placemark><name>offline fixture</name>
<styleUrl>#road</styleUrl><ExtendedData><Data name="highway"><value>residential</value></Data></ExtendedData><LineString><tessellate>1</tessellate><coordinates>139.6953334,35.6975900,0 139.6953334,35.7014336,0</coordinates></LineString></Placemark><Placemark><name>offline fixture</name>
<styleUrl>#road</styleUrl><ExtendedData><Data name="highway"><value>residential</value></Data></ExtendedData><LineString><tessellate>1</tessellate><coordinates>139.6963747,35.6977613,0 139.6963747,35.6996710,0</coordinates></LineString></Placemark><Placemark><name>offline fixture</name>
<styleUrl>#road</styleUrl><ExtendedData><Data name="highway"><value>residential</value></Data></ExtendedData><LineString><tessellate>1</tessellate><coordinates>139.6905659,35.6975058,0 139.6948244,35.6975058,0</coordinates></LineString></Placemark><Placemark><name>offline fixture</name>
<styleUrl>#road</styleUrl><ExtendedData><Data name="highway"><value>residential</value></Data></ExtendedData><LineString><tessellate>1</tessellate><coordinates>139.6909725,35.6983134,0 139.6972097,35.6983134,0</coordinates></LineString></Placemark><Placemark><name>offline fixture</name>
<styleUrl>#road</styleUrl><ExtendedData><Data name="highway"><value>residential</value></Data></ExtendedData><LineString><tessellate>1</tessellate><coordinates>139.6911240,35.6991211,0 139.6967147,35.6991211,0</coordinates></LineString></Placemark><Placemark><name>offline fixture</name>
<styleUrl>#road</styleUrl><ExtendedData><Data name="highway"><value>residential</value></Data></ExtendedData><LineString><tessellate>1</tessellate><coordinates>139.6912422,35.6999288,0 139.6962113,35.6999288,0</coordinates></LineString></Placemark><Placemark><name>offline fixture</name>
<styleUrl>#road</styleUrl><ExtendedData><Data name="highway"><value>residential</value></Data></ExtendedData><LineString><tessellate>1</tessellate><coordinates>139.6910054,35.7007365,0 139.6956931,35.7007365,0</coordinates></LineString></Placemark><Placemark><name>offline fixture</name>
<styleUrl>#road</styleUrl><ExtendedData><Data name="highway"><value>residential</value></Data></ExtendedData><LineString><tessellate>1</tessellate><coordinates>139.6907329,35.7014432,0 139.6953293,35.7014432,0</coordinates></LineString></Placemark><Placemark><name>offline fixture</name>
<styleUrl>#road</styleUrl><ExtendedData><Data name="highway"><value>residential</value></Data></ExtendedData><LineString><tessellate>1</tessellate><coordinates>139.6905152,35.6969300,0 139.6957112,35.7007083,0</coordinates></LineString></Placemark><Placemark><name>offline fixture</name>
<styleUrl>#road</styleUrl><ExtendedData><Data name="highway"><value>residential</value></Data></ExtendedData><LineString><tessellate>1</tessellate><coordinates>139.6908010,35.7017102,0 139.6962584,35.6977418,0</coordinates></LineString></Placemark></Folder>
<Folder><name>03 巡回ルート</name><Placemark><name>北新宿一丁目 担当02 巡回ルート</name><description>{&quot;source_edges&quot;: 107, &quot;route_edges&quot;: 145, &quot;source_length_m&quot;: 6622.1, &quot;route_length_m&quot;: 2167.2, &quot;duplicated_length_m&quot;: 2046.7, &quot;major_road_duplicated_m&quot;: 0, &quot;duplication_ratio&quot;: 1.309, &quot;connected_nodes&quot;: 75, &quot;dead_end_count&quot;: 30, &quot;start_lon&quot;: 139.692209, &quot;start_lat&quot;: 35.700686, &quot;data_mode&quot;: &quot;offline-fixture&quot;, &quot;worker_count&quot;: 4}</description><styleUrl>#route</styleUrl><LineString><tessellate>1</tessellate><coordinates>139.6942920,35.7008388,0 139.6942920,35.7014430,0 139.6953290,35.7014430,0 139.6942920,35.7014430,0 139.6942920,35.7019060,0 139.6942920,35.7014430,0 139.6932510,35.7014430,0 139.6932510,35.7019180,0 139.6932510,35.7014430,0 139.6922090,35.7014430,0 139.6922090,35.7018270,0 139.6922090,35.7014430,0 139.6932510,35.7014430,0 139.6932510,35.7007360,0 139.6942920,35.7007360,0 139.6942920,35.6999290,0 139.6946390,35.6999290,0 139.6953330,35.6999290,0 139.6962110,35.6999290,0 139.6953330,35.6999290,0 139.6953330,35.7004340,0 139.6953330,35.6999290,0 139.6953330,35.6991210,0 139.6953330,35.6984140,0 139.6953330,35.6983130,0 139.6953330,35.6975900,0 139.6953330,35.6983130,0 139.6942920,35.6983130,0 139.6942920,35.6991210,0 139.6942920,35.6991720,0 139.6942920,35.6996760,0 139.6942920,35.6999290,0 139.6932510,35.6999290,0 139.6932510,35.6999416,0</coordinates></LineString></Placemark></Folder>
<Folder><name>04 開始地点</name><Placemark><name>開始地点</name><styleUrl>#start</styleUrl><Point><coordinates>139.6942920,35.7008388,0</coordinates></Point></Placemark></Folder>
<Folder><name>05 担当別ルート</name><Folder><name>担当02</name>
<Placemark><name>担当02 巡回区間</name><description>{&quot;worker_id&quot;: 2, &quot;name&quot;: &quot;担当02&quot;, &quot;length_m&quot;: 2167.2, &quot;start_lon&quot;: 139.694292, &quot;start_lat&quot;: 35.70083876841899, &quot;end_lon&quot;: 139.693251, &quot;end_lat&quot;: 35.69994158541247, &quot;difference_from_average_m&quot;: 0.0}</description><styleUrl>#worker2</styleUrl><LineString><tessellate>1</tessellate><coordinates>139.6942920,35.7008388,0 139.6942920,35.7014430,0 139.6953290,35.7014430,0 139.6942920,35.7014430,0 139.6942920,35.7019060,0 139.6942920,35.7014430,0 139.6932510,35.7014430,0 139.6932510,35.7019180,0 139.6932510,35.7014430,0 139.6922090,35.7014430,0 139.6922090,35.7018270,0 139.6922090,35.7014430,0 139.6932510,35.7014430,0 139.6932510,35.7007360,0 139.6942920,35.7007360,0 139.6942920,35.6999290,0 139.6946390,35.6999290,0 139.6953330,35.6999290,0 139.6962110,35.6999290,0 139.6953330,35.6999290,0 139.6953330,35.7004340,0 139.6953330,35.6999290,0 139.6953330,35.6991210,0 139.6953330,35.6984140,0 139.6953330,35.6983130,0 139.6953330,35.6975900,0 139.6953330,35.6983130,0 139.6942920,35.6983130,0 139.6942920,35.6991210,0 139.6942920,35.6991720,0 139.6942920,35.6996760,0 139.6942920,35.6999290,0 139.6932510,35.6999290,0 139.6932510,35.6999416,0</coordinates></LineString></Placemark>
<Placemark><name>担当02 開始</name><styleUrl>#start</styleUrl><Point><coordinates>139.6942920,35.7008388,0</coordinates></Point></Placemark>
<Placemark><name>担当02 終了</name><Point><coordinates>139.6932510,35.6999416,0</coordinates></Point></Placemark></Folder></Folder>
</Document></kml>