{
  "type": "FeatureCollection",
  "features": [
    {
      "type": "Feature",
      "properties": {
        "kind": "area",
        "name": "北新宿一丁目"
      },
      "geometry": {
        "type": "Polygon",
        "coordinates": [
          [
            [
              139.691275,
              35.697053
            ],
            [
              139.691306,
              35.697054
            ],
            [
              139.69164,
              35.697058
            ],
            [
              139.691703,
              35.697066
            ],
            [
              139.691788,
              35.697077
            ],
            [
              139.69193,
              35.697095
            ],
            [
              139.692356,
              35.697148
            ],
            [
              139.692757,
              35.697198
            ],
            [
              139.692824,
              35.697208
            ],
            [
              139.692929,
              35.697223
            ],
            [
              139.693075,
              35.697243
            ],
            [
              139.693387,
              35.697287
            ],
            [
              139.693535,
              35.697308
            ],
            [
              139.694062,
              35.697382
            ],
            [
              139.694144,
              35.697394
            ],
            [
              139.694385,
              35.697433
            ],
            [
              139.694568,
              35.697464
            ],
            [
              139.694832,
              35.697507
            ],
            [
              139.694949,
              35.697526
            ],
            [
              139.69498,
              35.697532
            ],
            [
              139.69537,
              35.697596
            ],
            [
              139.695419,
              35.697604
            ],
            [
              139.695815,
              35.697669
            ],
            [
              139.695844,
              35.697673
            ],
            [
              139.695885,
              35.69768
            ],
            [
              139.695918,
              35.697685
            ],
            [
              139.695939,
              35.697689
            ],
            [
              139.696114,
              35.697716
            ],
            [
              139.696282,
              35.697746
            ],
            [
              139.696304,
              35.697749
            ],
            [
              139.696723,
              35.697822
            ],
            [
              139.696754,
              35.697828
            ],
            [
              139.696845,
              35.697844
            ],
            [
              139.697014,
              35.697873
            ],
            [
              139.697337,
              35.697929
            ],
            [
              139.697416,
              35.69795
            ],
            [
              139.697291,
              35.698179
            ],
            [
              139.696964,
              35.69872
            ],
            [
              139.696935,
              35.698767
            ],
            [
              139.696899,
              35.698824
            ],
            [
              139.696778,
              35.699021
            ],
            [
              139.696726,
              35.699103
            ],
            [
              139.696605,
              35.699297
            ],
            [
              139.696524,
              35.699429
            ],
            [
              139.696326,
              35.69975
            ],
            [
              139.69614,
              35.70004
            ],
            [
              139.696048,
              35.700184
            ],
            [
              139.695939,
              35.700355
            ],
            [
              139.69584,
              35.700509
            ],
            [
              139.695768,
              35.70062
            ],
            [
              139.69566,
              35.700788
            ],
            [
              139.695629,
              35.700836
            ],
            [
              139.695409,
              35.701278
            ],
            [
              139.695343,
              35.701411
            ],
            [
              139.695232,
              35.701672
            ],
            [
              139.695183,
              35.701856
            ],
            [
              139.695052,
              35.701848
            ],
            [
              139.694491,
              35.701896
            ],
            [
              139.694476,
              35.701898
            ],
            [
              139.694148,
              35.701912
            ],
            [
              139.694076,
              35.701918
            ],
            [
              139.693852,
              35.701938
            ],
            [
              139.693645,
              35.701947
            ],
            [
              139.693626,
              35.701948
            ],
            [
              139.693403,
              35.701931
            ],
            [
              139.693333,
              35.701926
            ],
            [
              139.693326,
              35.701925
            ],
            [
              139.693312,
              35.701924
            ],
            [
              139.693099,
              35.701903
            ],
            [
              139.693089,
              35.701902
            ],
            [
              139.692932,
              35.701889
            ],
            [
              139.692692,
              35.701868
            ],
            [
              139.692593,
              35.70186
            ],
            [
              139.692554,
              35.701857
            ],
            [
              139.692186,
              35.701825
            ],
            [
              139.691843,
              35.701796
            ],
            [
              139.691694,
              35.701783
            ],
            [
              139.691651,
              35.701779
            ],
            [
              139.691306,
              35.701748
            ],
            [
              139.691217,
              35.701742
            ],
            [
              139.690992,
              35.701725
            ],
            [
              139.690798,
              35.70171
            ],
            [
              139.690634,
              35.701699
            ],
            [
              139.690619,
              35.701698
            ],
            [
              139.690572,
              35.701697
            ],
            [
              139.69072,
              35.701464
            ],
            [
              139.690766,
              35.70139
            ],
            [
              139.690817,
              35.701311
            ],
            [
              139.690866,
              35.701154
            ],
            [
              139.690923,
              35.700969
            ],
            [
              139.691042,
              35.700633
            ],
            [
              139.69108,
              35.70055
            ],
            [
              139.69114,
              35.700405
            ],
            [
              139.691206,
              35.700243
            ],
            [
              139.69121,
              35.700235
            ],
            [
              139.691241,
              35.700089
            ],
            [
              139.691243,
              35.69982
            ],
            [
              139.691218,
              35.699645
            ],
            [
              139.691206,
              35.699553
            ],
            [
              139.691195,
              35.699481
            ],
            [
              139.691125,
              35.699141
            ],
            [
              139.691117,
              35.698975
            ],
            [
              139.69111,
              35.698947
            ],
            [
              139.691108,
              35.698916
            ],
            [
              139.691095,
              35.69868
            ],
            [
              139.691087,
              35.698535
            ],
            [
              139.69099,
              35.698337
            ],
            [
              139.690944,
              35.698275
            ],
            [
              139.690772,
              35.698106
            ],
            [
              139.690716,
              35.698041
            ],
            [
              139.690632,
              35.697786
            ],
            [
              139.690533,
              35.697366
            ],
            [
              139.69053,
              35.697352
            ],
            [
              139.690474,
              35.697073
            ],
            [
              139.690512,
              35.696941
            ],
            [
              139.690524,
              35.6969
            ],
            [
              139.690603,
              35.6969
            ],
            [
              139.690696,
              35.697017
            ],
            [
              139.690857,
              35.697046
            ],
            [
              139.690884,
              35.697046
            ],
            [
              139.69111,
              35.697044
            ],
            [
              139.691275,
              35.697053
            ]
          ]
        ]
      }
    },
    {
      "type": "Feature",
      "properties": {
        "kind": "road",
        "highway": "residential",
        "name": "offline fixture"
      },
      "geometry": {
        "type": "LineString",
        "coordinates": [
          [
            139.6911682,
            35.69704717454545
          ],
          [
            139.6911682,
            35.69935082857141
          ]
        ]
      }
    },
    {
      "type": "Feature",
      "properties": {
        "kind": "road",
        "highway": "residential",
        "name": "offline fixture"
      },
      "geometry": {
        "type": "LineString",
        "coordinates": [
          [
            139.6911682,
            35.70033578181818
          ],
          [
            139.6911682,
            35.70173831288889
          ]
        ]
      }
    },
    {
      "type": "Feature",
      "properties": {
        "kind": "road",
        "highway": "residential",
        "name": "offline fixture"
      },
      "geometry": {
        "type": "LineString",
        "coordinates": [
          [
            139.6922095,
            35.697129773474174
          ],
          [
            139.6922095,
            35.70182704347826
          ]
        ]
      }
    },
    {
      "type": "Feature",
      "properties": {
        "kind": "road",
        "highway": "residential",
        "name": "offline fixture"
      },
      "geometry": {
        "type": "LineString",
        "coordinates": [
          [
            139.6932508,
            35.69726779230769
          ],
          [
            139.6932508,
            35.70191796619718
          ]
        ]
      }
    },
    {
      "type": "Feature",
      "properties": {
        "kind": "road",
        "highway": "residential",
        "name": "offline fixture"
      },
      "geometry": {
        "type": "LineString",
        "coordinates": [
          [
            139.6942921,
            35.69741796639004
          ],
          [
            139.6942921,
            35.70190584939024
          ]
        ]
      }
    },
    {
      "type": "Feature",
      "properties": {
        "kind": "road",
        "highway": "residential",
        "name": "offline fixture"
      },
      "geometry": {
        "type": "LineString",
        "coordinates": [
          [
            139.6953334,
            35.69758999384615
          ],
          [
            139.6953334,
            35.70143357297297
          ]
        ]
      }
    },
    {
      "type": "Feature",
      "properties": {
        "kind": "road",
        "highway": "residential",
        "name": "offline fixture"
      },
      "geometry": {
        "type": "LineString",
        "coordinates": [
          [
            139.6963747,
            35.697761317661104
          ],
          [
            139.6963747,
            35.69967104696969
          ]
        ]
      }
    },
    {
      "type": "Feature",
      "properties": {
        "kind": "road",
        "highway": "residential",
        "name": "offline fixture"
      },
      "geometry": {
        "type": "LineString",
        "coordinates": [
          [
            139.69056594342857,
            35.69750576
          ],
          [
            139.6948243869767,
            35.69750576
          ]
        ]
      }
    },
    {
      "type": "Feature",
      "properties": {
        "kind": "road",
        "highway": "residential",
        "name": "offline fixture"
      },
      "geometry": {
        "type": "LineString",
        "coordinates": [
          [
            139.69097252,
            35.69831344
          ],
          [
            139.69720973959335,
            35.69831344
          ]
        ]
      }
    },
    {
      "type": "Feature",
      "properties": {
        "kind": "road",
        "highway": "residential",
        "name": "offline fixture"
      },
      "geometry": {
        "type": "LineString",
        "coordinates": [
          [
            139.6911240419277,
            35.69912112
          ],
          [
            139.69671469835052,
            35.69912112
          ]
        ]
      }
    },
    {
      "type": "Feature",
      "properties": {
        "kind": "road",
        "highway": "residential",
        "name": "offline fixture"
      },
      "geometry": {
        "type": "LineString",
        "coordinates": [
          [
            139.69124219107806,
            35.6999288
          ],
          [
            139.6962113213793,
            35.6999288
          ]
        ]
      }
    },
    {
      "type": "Feature",
      "properties": {
        "kind": "road",
        "highway": "residential",
        "name": "offline fixture"
      },
      "geometry": {
        "type": "LineString",
        "coordinates": [
          [
            139.69100535083334,
            35.70073648
          ],
          [
            139.69569312,
            35.70073648
          ]
        ]
      }
    },
    {
      "type": "Feature",
      "properties": {
        "kind": "road",
        "highway": "residential",
        "name": "offline fixture"
      },
      "geometry": {
        "type": "LineString",
        "coordinates": [
          [
            139.69073292972973,
            35.7014432
          ],
          [
            139.69532930574712,
            35.7014432
          ]
        ]
      }
    },
    {
      "type": "Feature",
      "properties": {
        "kind": "road",
        "highway": "residential",
        "name": "offline fixture"
      },
      "geometry": {
        "type": "LineString",
        "coordinates": [
          [
            139.69051522590513,
            35.69692997815747
          ],
          [
            139.69571121379892,
            35.70070833409059
          ]
        ]
      }
    },
    {
      "type": "Feature",
      "properties": {
        "kind": "road",
        "highway": "residential",
        "name": "offline fixture"
      },
      "geometry": {
        "type": "LineString",
        "coordinates": [
          [
            139.69080098025736,
            35.70171023043227
          ],
          [
            139.69625838224636,
            35.69774178254399
          ]
        ]
      }
    },
    {
      "type": "Feature",
      "properties": {
        "kind": "route",
        "source_edges": 107,
        "route_edges": 145,
        "source_length_m": 6622.1,
        "route_length_m": 8668.8,
        "duplication_ratio": 1.309,
        "connected_nodes": 75,
        "data_mode": "offline-fixture"
      },
      "geometry": {
        "type": "LineString",
        "coordinates": [
          [
            139.690515,
            35.69693
          ],
          [
            139.691168,
            35.697405
          ],
          [
            139.691307,
            35.697506
          ],
          [
            139.692209,
            35.698162
          ],
          [
            139.692418,
            35.698313
          ],
          [
            139.693251,
            35.698919
          ],
          [
            139.693528,
            35.699121
          ],
          [
            139.693945,
            35.699424
          ],
          [
            139.694292,
            35.699676
          ],
          [
            139.694292,
            35.699929
          ],
          [
            139.694639,
            35.699929
          ],
          [
            139.695333,
            35.700434
          ],
          [
            139.695711,
            35.700708
          ],
          [
            139.695333,
            35.700434
          ],
          [
            139.695333,
            35.700736
          ],
          [
            139.695693,
            35.700736
          ],
          [
            139.695333,
            35.700736
          ],
          [
            139.695333,
            35.701434
          ],
          [
            139.695333,
            35.700736
          ],
          [
            139.694292,
            35.700736
          ],
          [
            139.694292,
            35.701443
          ],
          [
            139.695329,
            35.701443
          ],
          [
            139.694292,
            35.701443
          ],
          [
            139.694292,
            35.701906
          ],
          [
            139.694292,
            35.701443
          ],
          [
            139.693251,
            35.701443
          ],
          [
            139.693251,
            35.701918
          ],
          [
            139.693251,
            35.701443
          ],
          [
            139.692209,
            35.701443
          ],
          [
            139.692209,
            35.701827
          ],
          [
            139.692209,
            35.701443
          ],
          [
            139.693251,
            35.701443
          ],
          [
            139.693251,
            35.700736
          ],
          [
            139.694292,
            35.700736
          ],
          [
            139.694292,
            35.699929
          ],
          [
            139.693251,
            35.699929
          ],
          [
            139.693945,
            35.699424
          ],
          [
            139.694292,
            35.699172
          ],
          [
            139.694362,
            35.699121
          ],
          [
            139.695333,
            35.699121
          ],
          [
            139.696375,
            35.699121
          ],
          [
            139.696715,
            35.699121
          ],
          [
            139.696375,
            35.699121
          ],
          [
            139.696375,
            35.699671
          ],
          [
            139.696375,
            35.699121
          ],
          [
            139.696375,
            35.698313
          ],
          [
            139.69721,
            35.698313
          ],
          [
            139.696375,
            35.698313
          ],
          [
            139.696375,
            35.697761
          ],
          [
            139.696375,
            35.698313
          ],
          [
            139.695472,
            35.698313
          ],
          [
            139.696258,
            35.697742
          ],
          [
            139.695472,
            35.698313
          ],
          [
            139.695333,
            35.698313
          ],
          [
            139.695472,
            35.698313
          ],
          [
            139.695333,
            35.698414
          ],
          [
            139.694362,
            35.699121
          ],
          [
            139.694292,
            35.699121
          ],
          [
            139.694292,
            35.699172
          ],
          [
            139.694292,
            35.699676
          ],
          [
            139.694639,
            35.699929
          ],
          [
            139.695333,
            35.699929
          ],
          [
            139.696211,
            35.699929
          ],
          [
            139.695333,
            35.699929
          ],
          [
            139.695333,
            35.700434
          ],
          [
            139.695333,
            35.699929
          ],
          [
            139.695333,
            35.699121
          ],
          [
            139.695333,
            35.698414
          ],
          [
            139.695333,
            35.698313
          ],
          [
            139.695333,
            35.69759
          ],
          [
            139.695333,
            35.698313
          ],
          [
            139.694292,
            35.698313
          ],
          [
            139.694292,
            35.699121
          ],
          [
            139.693528,
            35.699121
          ],
          [
            139.693251,
            35.699121
          ],
          [
            139.693251,
            35.699929
          ],
          [
            139.693251,
            35.700736
          ],
          [
            139.692209,
            35.700736
          ],
          [
            139.69214,
            35.700736
          ],
          [
            139.692209,
            35.700686
          ],
          [
            139.69214,
            35.700736
          ],
          [
            139.691168,
            35.701443
          ],
          [
            139.690801,
            35.70171
          ],
          [
            139.691168,
            35.701443
          ],
          [
            139.690733,
            35.701443
          ],
          [
            139.691168,
            35.701443
          ],
          [
            139.691168,
            35.701738
          ],
          [
            139.691168,
            35.701443
          ],
          [
            139.69214,
            35.700736
          ],
          [
            139.691168,
            35.700736
          ],
          [
            139.691005,
            35.700736
          ],
          [
            139.691168,
            35.700736
          ],
          [
            139.691168,
            35.700336
          ],
          [
            139.691168,
            35.700736
          ],
          [
            139.691168,
            35.701443
          ],
          [
            139.692209,
            35.701443
          ],
          [
            139.692209,
            35.700736
          ],
          [
            139.692209,
            35.700686
          ],
          [
            139.693251,
            35.699929
          ],
          [
            139.692209,
            35.699929
          ],
          [
            139.691242,
            35.699929
          ],
          [
            139.692209,
            35.699929
          ],
          [
            139.692209,
            35.700686
          ],
          [
            139.692209,
            35.699929
          ],
          [
            139.692209,
            35.699121
          ],
          [
            139.693251,
            35.699121
          ],
          [
            139.693251,
            35.698919
          ],
          [
            139.693251,
            35.698313
          ],
          [
            139.694292,
            35.698313
          ],
          [
            139.694292,
            35.697506
          ],
          [
            139.694824,
            35.697506
          ],
          [
            139.694292,
            35.697506
          ],
          [
            139.694292,
            35.697418
          ],
          [
            139.694292,
            35.697506
          ],
          [
            139.693251,
            35.697506
          ],
          [
            139.693251,
            35.697268
          ],
          [
            139.693251,
            35.697506
          ],
          [
            139.692209,
            35.697506
          ],
          [
            139.693251,
            35.697506
          ],
          [
            139.693251,
            35.698313
          ],
          [
            139.692418,
            35.698313
          ],
          [
            139.692209,
            35.698313
          ],
          [
            139.692209,
            35.699121
          ],
          [
            139.691168,
            35.699121
          ],
          [
            139.691124,
            35.699121
          ],
          [
            139.691168,
            35.699121
          ],
          [
            139.691168,
            35.699351
          ],
          [
            139.691168,
            35.699121
          ],
          [
            139.691168,
            35.698313
          ],
          [
            139.690973,
            35.698313
          ],
          [
            139.691168,
            35.698313
          ],
          [
            139.692209,
            35.698313
          ],
          [
            139.692209,
            35.698162
          ],
          [
            139.692209,
            35.697506
          ],
          [
            139.692209,
            35.69713
          ],
          [
            139.692209,
            35.697506
          ],
          [
            139.691307,
            35.697506
          ],
          [
            139.691168,
            35.697506
          ],
          [
            139.690566,
            35.697506
          ],
          [
            139.691168,
            35.697506
          ],
          [
            139.691168,
            35.698313
          ],
          [
            139.691168,
            35.697506
          ],
          [
            139.691168,
            35.697405
          ],
          [
            139.691168,
            35.697047
          ],
          [
            139.691168,
            35.697405
          ],
          [
            139.690515,
            35.69693
          ]
        ]
      }
    }
  ]
}